NANOSATC-BR1            
1 40024U 14033Q   26068.98267556  .00020336  00000+0  74295-3 0  9994
2 40024  98.0845  92.7804 0004644 147.6715 212.4808 15.28136801638811
STARLINK-33765          
1 63473U 25070P   26068.54902246  .00024286  00000+0  88912-3 0  9993
2 63473  42.9956 260.6993 0000930 247.9852 112.0901 15.27581282 52950
